[{"OBJECT_NAME":"HYPSO-2","OBJECT_ID":"2024-149BR","EPOCH":"2026-03-09T15:24:17.277696","MEAN_MOTION":14.98259029,"ECCENTRICITY":0.00013898,"INCLINATION":97.6894,"RA_OF_ASC_NODE":146.3679,"ARG_OF_PERICENTER":74.8032,"MEAN_ANOMALY":285.3344,"EPHEMERIS_TYPE":0,"CLASSIFICATION_TYPE":"U","NORAD_CAT_ID":60531,"ELEMENT_SET_NO":999,"REV_AT_EPOCH":8514,"BSTAR":0.00033979817,"MEAN_MOTION_DOT":3.981e-5,"MEAN_MOTION_DDOT":0},{"OBJECT_NAME":"STARLINK-35959","OBJECT_ID":"2025-280G","EPOCH":"2026-03-09T22:45:14.984640","MEAN_MOTION":14.9832818,"ECCENTRICITY":0.00025614,"INCLINATION":70.0022,"RA_OF_ASC_NODE":333.84,"ARG_OF_PERICENTER":273.0904,"MEAN_ANOMALY":86.9962,"EPHEMERIS_TYPE":0,"CLASSIFICATION_TYPE":"U","NORAD_CAT_ID":66827,"ELEMENT_SET_NO":999,"REV_AT_EPOCH":1611,"BSTAR":0.0002026814,"MEAN_MOTION_DOT":2.326e-5,"MEAN_MOTION_DDOT":0}]
